{"type": "FeatureCollection", "features": [ {"type": "Feature", "properties": {"norad_id": 66735, "name": "FLOCK 4H-32", "group": "last-30-days", "lat": -61.570697222030915, "lon": -127.65192359593091, "alt_km": 519.3860874266975, "timestamp": "2025-12-20T16:47:35.023453+00:00", "meta": {"OBJECT_NAME": "FLOCK 4H-32", "OBJECT_ID": "2025-276BX", "EPOCH": "2025-12-20T10:58:43.800096", "MEAN_MOTION": 15.17196747, "ECCENTRICITY": 0.0003491, "INCLINATION": 97.4437, "RA_OF_ASC_NODE": 66.0858, "ARG_OF_PERICENTER": 271.4212, "MEAN_ANOMALY": 88.6621, "EPHEMERIS_TYPE": 0, "CLASSIFICATION_TYPE": "U", "NORAD_CAT_ID": 66735, "ELEMENT_SET_NO": 999, "REV_AT_EPOCH": 329, "BSTAR": 0.00032601, "MEAN_MOTION_DOT": 6.413e-05, "MEAN_MOTION_DDOT": 0}, "tle": {"line1": "1 66735U 25276BX  25354.45745139  .00006413  00000+0  32601-3 0  9994", "line2": "2 66735  97.4437  66.0858 0003491 271.4212  88.6621 15.17196747  3295"}}, "geometry": {"type": "Point", "coordinates": [-127.65192359593091, -61.570697222030915]}}, {"type": "Feature", "properties": {"norad_id": 66736, "name": "FLOCK 4H-33", "group": "last-30-days", "lat": -34.77700567297229, "lon": 71.56755873481355, "alt_km": 518.9875394669616, "timestamp": "2025-12-20T16:47:35.023463+00:00", "meta": {"OBJECT_NAME": "FLOCK 4H-33", "OBJECT_ID": "2025-276BY", "EPOCH": "2025-12-20T05:52:30.301824", "MEAN_MOTION": 15.18248671, "ECCENTRICITY": 0.0002392, "INCLINATION": 97.4437, "RA_OF_ASC_NODE": 65.9108, "ARG_OF_PERICENTER": 165.791, "MEAN_ANOMALY": 194.3392, "EPHEMERIS_TYPE": 0, "CLASSIFICATION_TYPE": "U", "NORAD_CAT_ID": 66736, "ELEMENT_SET_NO": 999, "REV_AT_EPOCH": 326, "BSTAR": 0.00035311, "MEAN_MOTION_DOT": 7.166e-05, "MEAN_MOTION_DDOT": 0}, "tle": {"line1": "1 66736U 25276BY  25354.24479516  .00007166  00000+0  35311-3 0  9992", "line2": "2 66736  97.4437  65.9108 0002392 165.7910 194.3392 15.18248671  3263"}}, "geometry": {"type": "Point", "coordinates": [71.56755873481355, -34.77700567297229]}}, {"type": "Feature", "properties": {"norad_id": 66737, "name": "FLOCK 4H-34", "group": "last-30-days", "lat": -42.80276904894927, "lon": 73.31520238688546, "alt_km": 519.4630245591816, "timestamp": "2025-12-20T16:47:35.023474+00:00", "meta": {"OBJECT_NAME": "FLOCK 4H-34", "OBJECT_ID": "2025-276BZ", "EPOCH": "2025-12-20T04:19:40.967328", "MEAN_MOTION": 15.18117302, "ECCENTRICITY": 0.00022895, "INCLINATION": 97.445, "RA_OF_ASC_NODE": 65.8484, "ARG_OF_PERICENTER": 176.3551, "MEAN_ANOMALY": 183.7701, "EPHEMERIS_TYPE": 0, "CLASSIFICATION_TYPE": "U", "NORAD_CAT_ID": 66737, "ELEMENT_SET_NO": 999, "REV_AT_EPOCH": 250, "BSTAR": 0.00022468136, "MEAN_MOTION_DOT": 4.517e-05, "MEAN_MOTION_DDOT": 0}, "tle": {"line1": "1 66737U 25276BZ  25354.18033527  .00004517  00000+0  22468-3 0  9990", "line2": "2 66737  97.4450  65.8484 0002289 176.3551 183.7701 15.18117302  2507"}}, "geometry": {"type": "Point", "coordinates": [73.31520238688546, -42.80276904894927]}}, {"type": "Feature", "properties": {"norad_id": 66738, "name": "FLOCK 4H-35", "group": "last-30-days", "lat": -34.75022877864841, "lon": 71.5531930811194, "alt_km": 519.0502959228252, "timestamp": "2025-12-20T16:47:35.023484+00:00", "meta": {"OBJECT_NAME": "FLOCK 4H-35", "OBJECT_ID": "2025-276CA", "EPOCH": "2025-12-20T10:37:12.501984", "MEAN_MOTION": 15.18216013, "ECCENTRICITY": 0.0002207, "INCLINATION": 97.4414, "RA_OF_ASC_NODE": 66.0979, "ARG_OF_PERICENTER": 151.8545, "MEAN_ANOMALY": 208.2809, "EPHEMERIS_TYPE": 0, "CLASSIFICATION_TYPE": "U", "NORAD_CAT_ID": 66738, "ELEMENT_SET_NO": 999, "REV_AT_EPOCH": 258, "BSTAR": 0.00033382, "MEAN_MOTION_DOT": 6.764e-05, "MEAN_MOTION_DDOT": 0}, "tle": {"line1": "1 66738U 25276CA  25354.44250581  .00006764  00000+0  33382-3 0  9994", "line2": "2 66738  97.4414  66.0979 0002207 151.8545 208.2809 15.18216013  2580"}}, "geometry": {"type": "Point", "coordinates": [71.5531930811194, -34.75022877864841]}}, {"type": "Feature", "properties": {"norad_id": 66739, "name": "FLOCK 4H-36", "group": "last-30-days", "lat": -54.47675845996218, "lon": 76.91359814299794, "alt_km": 519.6576743011792, "timestamp": "2025-12-20T16:47:35.023494+00:00", "meta": {"OBJECT_NAME": "FLOCK 4H-36", "OBJECT_ID": "2025-276CB", "EPOCH": "2025-12-20T12:17:22.445376", "MEAN_MOTION": 15.17965028, "ECCENTRICITY": 0.0002165, "INCLINATION": 97.446, "RA_OF_ASC_NODE": 66.173, "ARG_OF_PERICENTER": 191.4298, "MEAN_ANOMALY": 168.6887, "EPHEMERIS_TYPE": 0, "CLASSIFICATION_TYPE": "U", "NORAD_CAT_ID": 66739, "ELEMENT_SET_NO": 999, "REV_AT_EPOCH": 330, "BSTAR": 0.00033508, "MEAN_MOTION_DOT": 6.741e-05, "MEAN_MOTION_DDOT": 0}, "tle": {"line1": "1 66739U 25276CB  25354.51206534  .00006741  00000+0  33508-3 0  9997", "line2": "2 66739  97.4460  66.1730 0002165 191.4298 168.6887 15.17965028  3308"}}, "geometry": {"type": "Point", "coordinates": [76.91359814299794, -54.47675845996218]}}, {"type": "Feature", "properties": {"norad_id": 66740, "name": "TRANSPORTER-15 CC", "group": "last-30-days", "lat": -76.7456904896342, "lon": 100.0474396577623, "alt_km": 519.046188780424, "timestamp": "2025-12-20T16:47:35.023504+00:00", "meta": {"OBJECT_NAME": "TRANSPORTER-15 CC", "OBJECT_ID": "2025-276CC", "EPOCH": "2025-12-20T04:28:54.145920", "MEAN_MOTION": 15.1767127, "ECCENTRICITY": 0.00019602, "INCLINATION": 97.4423, "RA_OF_ASC_NODE": 65.8355, "ARG_OF_PERICENTER": 252.4875, "MEAN_ANOMALY": 107.6144, "EPHEMERIS_TYPE": 0, "CLASSIFICATION_TYPE": "U", "NORAD_CAT_ID": 66740, "ELEMENT_SET_NO": 999, "REV_AT_EPOCH": 325, "BSTAR": 0.00026318522, "MEAN_MOTION_DOT": 5.235e-05, "MEAN_MOTION_DDOT": 0}, "tle": {"line1": "1 66740U 25276CC  25354.18673780  .00005235  00000+0  26319-3 0  9992", "line2": "2 66740  97.4423  65.8355 0001960 252.4875 107.6144 15.17671270  3255"}}, "geometry": {"type": "Point", "coordinates": [100.0474396577623, -76.7456904896342]}}, {"type": "Feature", "properties": {"norad_id": 66741, "name": "TRANSPORTER-15 CD", "group": "last-30-days", "lat": -81.40859339823123, "lon": 126.23281731502054, "alt_km": 522.9399021619602, "timestamp": "2025-12-20T16:47:35.023514+00:00", "meta": {"OBJECT_NAME": "TRANSPORTER-15 CD", "OBJECT_ID": "2025-276CD", "EPOCH": "2025-12-20T04:30:22.113216", "MEAN_MOTION": 15.17097812, "ECCENTRICITY": 0.00013133, "INCLINATION": 97.442, "RA_OF_ASC_NODE": 65.8267, "ARG_OF_PERICENTER": 149.7198, "MEAN_ANOMALY": 210.4111, "EPHEMERIS_TYPE": 0, "CLASSIFICATION_TYPE": "U", "NORAD_CAT_ID": 66741, "ELEMENT_SET_NO": 999, "REV_AT_EPOCH": 325, "BSTAR": -0.0067001812, "MEAN_MOTION_DOT": -0.00130377, "MEAN_MOTION_DDOT": 0}, "tle": {"line1": "1 66741U 25276CD  25354.18775594 -.00130377  00000+0 -67002-2 0  9990", "line2": "2 66741  97.4420  65.8267 0001313 149.7198 210.4111 15.17097812  3254"}}, "geometry": {"type": "Point", "coordinates": [126.23281731502054, -81.40859339823123]}}, {"type": "Feature", "properties": {"norad_id": 66742, "name": "TRANSPORTER-15 CE", "group": "last-30-days", "lat": -74.07724233523491, "lon": 93.59783787787228, "alt_km": 520.1657471404051, "timestamp": "2025-12-20T16:47:35.023526+00:00", "meta": {"OBJECT_NAME": "TRANSPORTER-15 CE", "OBJECT_ID": "2025-276CE", "EPOCH": "2025-12-20T10:47:51.245952", "MEAN_MOTION": 15.17673717, "ECCENTRICITY": 0.0001437, "INCLINATION": 97.4413, "RA_OF_ASC_NODE": 66.0852, "ARG_OF_PERICENTER": 196.8461, "MEAN_ANOMALY": 163.2726, "EPHEMERIS_TYPE": 0, "CLASSIFICATION_TYPE": "U", "NORAD_CAT_ID": 66742, "ELEMENT_SET_NO": 999, "REV_AT_EPOCH": 329, "BSTAR": 0.00029145, "MEAN_MOTION_DOT": 5.805e-05, "MEAN_MOTION_DDOT": 0}, "tle": {"line1": "1 66742U 25276CE  25354.44989868  .00005805  00000+0  29145-3 0  9993", "line2": "2 66742  97.4413  66.0852 0001437 196.8461 163.2726 15.17673717  3298"}}, "geometry": {"type": "Point", "coordinates": [93.59783787787228, -74.07724233523491]}}, {"type": "Feature", "properties": {"norad_id": 66743, "name": "TRANSPORTER-15 CF", "group": "last-30-days", "lat": -81.63818808978417, "lon": -176.44965701863504, "alt_km": 520.5765047413815, "timestamp": "2025-12-20T16:47:35.023537+00:00", "meta": {"OBJECT_NAME": "TRANSPORTER-15 CF", "OBJECT_ID": "2025-276CF", "EPOCH": "2025-12-20T10:52:32.621376", "MEAN_MOTION": 15.17476695, "ECCENTRICITY": 3.78e-05, "INCLINATION": 97.4412, "RA_OF_ASC_NODE": 66.0805, "ARG_OF_PERICENTER": 253.6249, "MEAN_ANOMALY": 106.4943, "EPHEMERIS_TYPE": 0, "CLASSIFICATION_TYPE": "U", "NORAD_CAT_ID": 66743, "ELEMENT_SET_NO": 999, "REV_AT_EPOCH": 329, "BSTAR": 0.00026627, "MEAN_MOTION_DOT": 5.267e-05, "MEAN_MOTION_DDOT": 0}, "tle": {"line1": "1 66743U 25276CF  25354.45315534  .00005267  00000+0  26627-3 0  9992", "line2": "2 66743  97.4412  66.0805 0000378 253.6249 106.4943 15.17476695  3291"}}, "geometry": {"type": "Point", "coordinates": [-176.44965701863504, -81.63818808978417]}}, {"type": "Feature", "properties": {"norad_id": 66744, "name": "TRANSPORTER-15 CG", "group": "last-30-days", "lat": -77.23764125282591, "lon": -148.91991376139865, "alt_km": 520.418575012086, "timestamp": "2025-12-20T16:47:35.023546+00:00", "meta": {"OBJECT_NAME": "TRANSPORTER-15 CG", "OBJECT_ID": "2025-276CG", "EPOCH": "2025-12-20T04:34:22.806336", "MEAN_MOTION": 15.17308878, "ECCENTRICITY": 0.00013001, "INCLINATION": 97.4425, "RA_OF_ASC_NODE": 65.829, "ARG_OF_PERICENTER": 264.2083, "MEAN_ANOMALY": 95.9003, "EPHEMERIS_TYPE": 0, "CLASSIFICATION_TYPE": "U", "NORAD_CAT_ID": 66744, "ELEMENT_SET_NO": 999, "REV_AT_EPOCH": 325, "BSTAR": 0.00024269962, "MEAN_MOTION_DOT": 4.771e-05, "MEAN_MOTION_DDOT": 0}, "tle": {"line1": "1 66744U 25276CG  25354.19054174  .00004771  00000+0  24270-3 0  9995", "line2": "2 66744  97.4425  65.8290 0001300 264.2083  95.9003 15.17308878  3253"}}, "geometry": {"type": "Point", "coordinates": [-148.91991376139865, -77.23764125282591]}}]}